NORAD_CAT_ID,OBJECT_NAME,OBJECT_TYPE,EPOCH,MEAN_MOTION,ECCENTRICITY,INCLINATION,RA_OF_ASC_NODE,ARG_OF_PERICENTER,MEAN_ANOMALY,BSTAR,MEAN_MOTION_DOT,MEAN_MOTION_DDOT,TLE_LINE0,TLE_LINE1,TLE_LINE2,SEMIMAJOR_AXIS,PERIOD,APOGEE,PERIGEE,DECAYED
53783.0,STARLINK-4536,PAYLOAD,2024-07-20 21:48:27,15.08841432,0.0001134,53.2172,73.0918,113.6189,246.4922,7.6661e-05,9.32e-06,0.0,0 STARLINK-4536,1 53783U 22111L   24202.90865369  .00000932  00000-0  76661-4 0  9993,2 53783  53.2172  73.0918 0001134 113.6189 246.4922 15.08841432102798,6917.876,95.437,540.525,538.957,0.0
53783.0,STARLINK-4536,PAYLOAD,2024-07-21 00:59:13,15.08844694,0.000136,53.2175,72.4959,117.4323,242.6808,0.00031568,4.74e-05,0.0,0 STARLINK-4536,1 53783U 22111L   24203.04113302  .00004740  00000-0  31568-3 0  9999,2 53783  53.2175  72.4959 0001360 117.4323 242.6808 15.08844694103629,6917.866,95.437,540.672,538.79,0.0
53783.0,STARLINK-4536,PAYLOAD,2024-07-21 20:03:51,15.08845149,0.0001375,53.2172,68.9278,122.674,237.4385,0.0003366,5.074e-05,0.0,0 STARLINK-4536,1 53783U 22111L   24203.83601377  .00005074  00000-0  33660-3 0  9996,2 53783  53.2172  68.9278 0001375 122.6740 237.4385 15.08845149103748,6917.865,95.437,540.681,538.778,0.0
53783.0,STARLINK-4536,PAYLOAD,2024-07-22 00:50:01,15.08844723,0.0001319,53.2168,68.0369,119.7323,240.3801,0.00036256,5.488e-05,0.0,0 STARLINK-4536,1 53783U 22111L   24204.03473430  .00005488  00000-0  36256-3 0  9999,2 53783  53.2168  68.0369 0001319 119.7323 240.3801 15.08844723102963,6917.866,95.437,540.643,538.818,0.0
53783.0,STARLINK-4536,PAYLOAD,2024-07-23 13:23:53,15.08846441,0.0001185,53.2157,61.1984,111.1374,248.9745,0.00020316,2.947e-05,0.0,0 STARLINK-4536,1 53783U 22111L   24205.55825235  .00002947  00000-0  20316-3 0  9998,2 53783  53.2157  61.1984 0001185 111.1374 248.9745 15.08846441103197,6917.861,95.437,540.545,538.906,0.0
53783.0,STARLINK-4536,PAYLOAD,2024-07-23 14:59:16,15.0884648,0.0001601,53.2169,60.8993,128.556,231.5575,0.00022962,3.369e-05,0.0,0 STARLINK-4536,1 53783U 22111L   24205.62449212  .00003369  00000-0  22962-3 0  9991,2 53783  53.2169  60.8993 0001601 128.5560 231.5575 15.08846480104012,6917.861,95.437,540.833,538.618,0.0
53783.0,STARLINK-4536,PAYLOAD,2024-07-24 00:31:35,15.08829794,7.72e-05,53.2173,59.1159,128.3057,231.8005,-0.00013652,-2.459e-05,0.0,0 STARLINK-4536,1 53783U 22111L   24206.02193832 -.00002459  00000-0 -13652-3 0  9997,2 53783  53.2173  59.1159 0000772 128.3057 231.8005 15.08829794103265,6917.912,95.438,540.311,539.243,0.0
53783.0,STARLINK-4536,PAYLOAD,2024-07-26 00:13:09,15.08839883,1.53e-05,53.2212,50.1978,113.4161,246.6847,0.00017272,2.462e-05,0.0,0 STARLINK-4536,1 53783U 22111L   24208.00913850  .00002462  00000-0  17272-3 0  9991,2 53783  53.2212  50.1978 0000153 113.4161 246.6847 15.08839883103564,6917.881,95.438,539.852,539.64,0.0
53783.0,STARLINK-4536,PAYLOAD,2024-07-26 16:07:01,15.08841767,9.25e-05,53.2161,47.2254,70.3358,289.7734,0.00010851,1.44e-05,0.0,0 STARLINK-4536,1 53783U 22111L   24208.67154182  .00001440  00000-0  10851-3 0  9990,2 53783  53.2161  47.2254 0000925  70.3358 289.7734 15.08841767104475,6917.875,95.437,540.38,539.1,0.0
53783.0,STARLINK-4536,PAYLOAD,2024-07-26 22:28:33,15.08848051,0.0001284,53.2164,46.037,62.2096,297.9027,0.00015162,2.126e-05,0.0,0 STARLINK-4536,1 53783U 22111L   24208.93649749  .00002126  00000-0  15162-3 0  9999,2 53783  53.2164  46.0370 0001284  62.2096 297.9027 15.08848051104516,6917.856,95.437,540.609,538.833,0.0
53783.0,STARLINK-4536,PAYLOAD,2024-07-27 12:47:02,15.08826595,0.0001959,53.2126,43.363,46.0356,314.0797,0.0003052,4.571e-05,0.0,0 STARLINK-4536,1 53783U 22111L   24209.53266280  .00004571  00000-0  30520-3 0  9992,2 53783  53.2126  43.3630 0001959  46.0356 314.0797 15.08826595103794,6917.921,95.438,541.142,538.431,0.0
53783.0,STARLINK-4536,PAYLOAD,2024-07-27 22:19:20,15.08838921,4.35e-05,53.2169,41.5739,103.9055,256.1986,3.2669e-05,2.32e-06,0.0,0 STARLINK-4536,1 53783U 22111L   24209.93010261  .00000232  00000-0  32669-4 0  9999,2 53783  53.2169  41.5739 0000435 103.9055 256.1986 15.08838921104667,6917.884,95.438,540.05,539.448,0.0
53783.0,STARLINK-4536,PAYLOAD,2024-07-28 18:59:21,15.08846443,8.79e-05,53.2182,37.7068,112.074,248.0346,-3.8332e-05,-8.98e-06,0.0,0 STARLINK-4536,1 53783U 22111L   24210.79122162 -.00000898  00000-0 -38332-4 0  9992,2 53783  53.2182  37.7068 0000879 112.0740 248.0346 15.08846443103980,6917.861,95.437,540.334,539.118,0.0
53783.0,STARLINK-4536,PAYLOAD,2024-07-29 12:28:36,15.08839577,0.0001083,53.218,34.436,114.8451,245.2654,0.0001775,2.538e-05,0.0,0 STARLINK-4536,1 53783U 22111L   24211.51986217  .00002538  00000-0  17750-3 0  9993,2 53783  53.2180  34.4360 0001083 114.8451 245.2654 15.08839577104908,6917.882,95.438,540.496,538.997,0.0
53783.0,STARLINK-4536,PAYLOAD,2024-07-29 18:50:08,15.08842991,0.0001219,53.2182,33.2462,118.5146,241.5969,0.00018607,2.675e-05,0.0,0 STARLINK-4536,1 53783U 22111L   24211.78482081  .00002675  00000-0  18607-3 0  9996,2 53783  53.2182  33.2462 0001219 118.5146 241.5969 15.08842991104949,6917.871,95.437,540.58,538.893,0.0
53783.0,STARLINK-4536,PAYLOAD,2024-07-30 18:40:55,15.08843324,0.0001125,53.2184,28.7876,89.5907,270.5214,0.00016772,2.383e-05,0.0,0 STARLINK-4536,1 53783U 22111L   24212.77842377  .00002383  00000-0  16772-3 0  9991,2 53783  53.2184  28.7876 0001125  89.5907 270.5214 15.08843324104280,6917.87,95.437,540.513,538.957,0.0
53783.0,STARLINK-4536,PAYLOAD,2024-07-31 04:13:14,15.08854605,0.0001197,53.2182,27.0038,89.2009,270.912,0.0002165,3.161e-05,0.0,0 STARLINK-4536,1 53783U 22111L   24213.17585706  .00003161  00000-0  21650-3 0  9992,2 53783  53.2182  27.0038 0001197  89.2009 270.9120 15.08854605105150,6917.836,95.437,540.529,538.873,0.0
53783.0,STARLINK-4536,PAYLOAD,2024-07-31 18:31:43,15.08828962,0.0001206,53.2177,24.3303,105.5627,254.5498,-9.6215e-05,-1.818e-05,0.0,0 STARLINK-4536,1 53783U 22111L   24213.77203109 -.00001818  00000-0 -96215-4 0  9991,2 53783  53.2177  24.3303 0001206 105.5627 254.5498 15.08828962104431,6917.914,95.438,540.613,538.945,0.0
53783.0,STARLINK-4536,PAYLOAD,2024-07-31 21:42:29,15.08835346,0.0001204,53.2184,23.7333,105.5001,254.6124,-3.8759e-06,-3.5e-06,0.0,0 STARLINK-4536,1 53783U 22111L   24213.90451071 -.00000350  00000-0 -38759-5 0  9999,2 53783  53.2184  23.7333 0001204 105.5001 254.6124 15.08835346105262,6917.895,95.438,540.593,538.927,0.0
53783.0,STARLINK-4536,PAYLOAD,2024-08-01 04:04:01,15.08843444,0.0001194,53.219,22.544,105.7407,254.3717,8.1886e-05,1.016e-05,0.0,0 STARLINK-4536,1 53783U 22111L   24214.16946461  .00001016  00000-0  81886-4 0  9996,2 53783  53.2190  22.5440 0001194 105.7407 254.3717 15.08843444104492,6917.87,95.437,540.561,538.909,0.0
53783.0,STARLINK-4536,PAYLOAD,2024-08-01 10:25:34,15.08838335,0.0001892,53.2196,21.3557,101.1431,258.9774,0.00016113,2.277e-05,0.0,0 STARLINK-4536,1 53783U 22111L   24214.43442928  .00002277  00000-0  16113-3 0  9995,2 53783  53.2196  21.3557 0001892 101.1431 258.9774 15.08838335105347,6917.885,95.438,541.059,538.442,0.0
53783.0,STARLINK-4536,PAYLOAD,2024-08-01 21:33:16,15.0884764,0.0001342,53.2178,19.2701,109.5937,250.52,0.00015977,2.256e-05,0.0,0 STARLINK-4536,1 53783U 22111L   24214.89810302  .00002256  00000-0  15977-3 0  9994,2 53783  53.2178  19.2701 0001342 109.5937 250.5200 15.08847640105416,6917.857,95.437,540.65,538.794,0.0
53783.0,STARLINK-4536,PAYLOAD,2024-08-02 03:54:48,15.08859139,0.0001122,53.219,18.0827,79.1702,280.9417,0.0003112,4.671e-05,0.0,0 STARLINK-4536,1 53783U 22111L   24215.16305707  .00004671  00000-0  31120-3 0  9994,2 53783  53.2190  18.0827 0001122  79.1702 280.9417 15.08859139104641,6917.822,95.436,540.463,538.911,0.0
53783.0,STARLINK-4536,PAYLOAD,2024-08-02 15:02:31,15.08819614,5.64e-05,53.2181,16.0045,130.6515,229.4526,-3.5622e-05,-8.54e-06,0.0,0 STARLINK-4536,1 53783U 22111L   24215.62675849 -.00000854  00000-0 -35622-4 0  9995,2 53783  53.2181  16.0045 0000564 130.6515 229.4526 15.08819614105526,6917.943,95.439,540.198,539.418,0.0
53783.0,STARLINK-4536,PAYLOAD,2024-08-02 19:48:40,15.08837965,0.0001109,53.2174,15.108,97.5948,262.517,9.123e-05,1.164e-05,0.0,0 STARLINK-4536,1 53783U 22111L   24215.82547126  .00001164  00000-0  91230-4 0  9993,2 53783  53.2174  15.1080 0001109  97.5948 262.5170 15.08837965104749,6917.887,95.438,540.519,538.984,0.0
53783.0,STARLINK-4536,PAYLOAD,2024-08-03 14:53:18,15.08834905,9.57e-05,53.2181,11.5402,88.252,271.8582,7.4012e-05,8.9e-06,0.0,0 STARLINK-4536,1 53783U 22111L   24216.62035338  .00000890  00000-0  74012-4 0  9993,2 53783  53.2181  11.5402 0000957  88.2520 271.8582 15.08834905105672,6917.896,95.438,540.423,539.099,0.0
53783.0,STARLINK-4536,PAYLOAD,2024-08-03 19:39:27,15.0885073,0.0001323,53.2185,10.6478,111.4383,248.675,0.00020864,3.035e-05,0.0,0 STARLINK-4536,1 53783U 22111L   24216.81906897  .00003035  00000-0  20864-3 0  9990,2 53783  53.2185  10.6478 0001323 111.4383 248.6750 15.08850730105700,6917.848,95.437,540.628,538.797,0.0
53783.0,STARLINK-4536,PAYLOAD,2024-08-04 03:36:22,15.08863513,8.4e-05,53.2165,9.1635,68.6634,291.4447,0.00028723,4.289e-05,0.0,0 STARLINK-4536,1 53783U 22111L   24217.15025745  .00004289  00000-0  28723-3 0  9996,2 53783  53.2165   9.1635 0000840  68.6634 291.4447 15.08863513104948,6917.809,95.436,540.255,539.092,0.0
53783.0,STARLINK-4536,PAYLOAD,2024-08-04 09:57:55,15.08860175,0.0002322,53.2166,7.973,76.8567,283.2684,0.00027159,4.039e-05,0.0,0 STARLINK-4536,1 53783U 22111L   24217.41522284  .00004039  00000-0  27159-3 0  9990,2 53783  53.2166   7.9730 0002322  76.8567 283.2684 15.08860175104981,6917.819,95.436,541.29,538.077,0.0
53783.0,STARLINK-4536,PAYLOAD,2024-08-04 14:44:05,15.08837936,0.0001254,53.2173,7.0815,78.0578,282.0555,0.00028714,4.285e-05,0.0,0 STARLINK-4536,1 53783U 22111L   24217.61395330  .00004285  00000-0  28714-3 0  9993,2 53783  53.2173   7.0815 0001254  78.0578 282.0555 15.08837936105820,6917.887,95.438,540.619,538.884,0.0
